start=new Date('2022-06-08T00:00:00.000Z').valueOf();
sats=[{"INCLINATION":"53.2195","TLE_LINE2":"2 51127  53.2195 333.0547 0001514  57.0509 303.0628 15.08843116 21782","LAUNCH_DATE":"2022-01-19","SEMIMAJOR_AXIS":"6917.871","EPHEMERIS_TYPE":"0","CENTER_NAME":"EARTH","ARG_OF_PERICENTER":"57.0509","TLE_LINE1":"1 51127U 22005Z   22158.84878546 -.00000382  00000-0 -59043-5 0  9994","PERIOD":"95.437","NORAD_CAT_ID":"51127","DECAY_DATE":null,"MEAN_MOTION":"15.08843116","REF_FRAME":"TEME","COUNTRY_CODE":"US","PERIAPSIS":"538.688","BSTAR":"-0.00000590430000","MEAN_ANOMALY":"303.0628","CLASSIFICATION_TYPE":"U","MEAN_MOTION_DOT":"-0.00000382","REV_AT_EPOCH":"2178","APOAPSIS":"540.783","GP_ID":"205597479","FILE":"3485136","RA_OF_ASC_NODE":"333.0547","MEAN_ELEMENT_THEORY":"SGP4","EPOCH":"2022-06-07T20:22:15.063744","OBJECT_TYPE":"PAYLOAD","SITE":"AFETR","OBJECT_NAME":"STARLINK-3370","ECCENTRICITY":"0.00015140","ELEMENT_SET_NO":"999","TIME_SYSTEM":"UTC","RCS_SIZE":"LARGE","OBJECT_ID":"2022-005Z","MEAN_MOTION_DDOT":"0.0000000000000"},{"TIME_SYSTEM":"UTC","ELEMENT_SET_NO":"999","ECCENTRICITY":"0.00018480","OBJECT_ID":"2022-005AA","MEAN_MOTION_DDOT":"0.0000000000000","RCS_SIZE":"LARGE","FILE":"3485136","GP_ID":"205597224","OBJECT_NAME":"STARLINK-3400","OBJECT_TYPE":"PAYLOAD","SITE":"AFETR","MEAN_ELEMENT_THEORY":"SGP4","RA_OF_ASC_NODE":"333.4520","EPOCH":"2022-06-07T18:20:22.454592","PERIAPSIS":"538.463","MEAN_MOTION":"15.08841324","COUNTRY_CODE":"US","REF_FRAME":"TEME","REV_AT_EPOCH":"2176","MEAN_MOTION_DOT":"0.00000719","BSTAR":"0.00006326000000","CLASSIFICATION_TYPE":"U","MEAN_ANOMALY":"307.5224","APOAPSIS":"541.020","EPHEMERIS_TYPE":"0","LAUNCH_DATE":"2022-01-19","SEMIMAJOR_AXIS":"6917.876","TLE_LINE2":"2 51128  53.2198 333.4520 0001848  52.5936 307.5224 15.08841324 21763","INCLINATION":"53.2198","NORAD_CAT_ID":"51128","PERIOD":"95.437","DECAY_DATE":null,"CENTER_NAME":"EARTH","TLE_LINE1":"1 51128U 22005AA  22158.76414878  .00000719  00000-0  63260-4 0  9997","ARG_OF_PERICENTER":"52.5936"},{"CLASSIFICATION_TYPE":"U","BSTAR":"0.00007283600000","MEAN_ANOMALY":"311.7427","REV_AT_EPOCH":"2178","MEAN_MOTION_DOT":"0.00000871","APOAPSIS":"541.033","MEAN_MOTION":"15.08840057","REF_FRAME":"TEME","COUNTRY_CODE":"US","PERIAPSIS":"538.457","CENTER_NAME":"EARTH","ARG_OF_PERICENTER":"48.3725","TLE_LINE1":"1 51129U 22005AB  22158.85710554  .00000871  00000-0  72836-4 0  9996","PERIOD":"95.438","NORAD_CAT_ID":"51129","DECAY_DATE":null,"INCLINATION":"53.2200","TLE_LINE2":"2 51129  53.2200 333.0297 0001862  48.3725 311.7427 15.08840057 21786","EPHEMERIS_TYPE":"0","LAUNCH_DATE":"2022-01-19","SEMIMAJOR_AXIS":"6917.880","RCS_SIZE":"LARGE","OBJECT_ID":"2022-005AB","MEAN_MOTION_DDOT":"0.0000000000000","ECCENTRICITY":"0.00018620","ELEMENT_SET_NO":"999","TIME_SYSTEM":"UTC","RA_OF_ASC_NODE":"333.0297","MEAN_ELEMENT_THEORY":"SGP4","EPOCH":"2022-06-07T20:34:13.918656","OBJECT_TYPE":"PAYLOAD","SITE":"AFETR","OBJECT_NAME":"STARLINK-3396","GP_ID":"205595979","FILE":"3485136"},{"APOAPSIS":"541.033","REV_AT_EPOCH":"2176","MEAN_MOTION_DOT":"0.00000569","BSTAR":"0.00005383300000","MEAN_ANOMALY":"307.2257","CLASSIFICATION_TYPE":"U","PERIAPSIS":"538.478","COUNTRY_CODE":"US","REF_FRAME":"TEME","MEAN_MOTION":"15.08836692","DECAY_DATE":null,"NORAD_CAT_ID":"51130","PERIOD":"95.438","ARG_OF_PERICENTER":"52.8904","TLE_LINE1":"1 51130U 22005AC  22158.77519017  .00000569  00000-0  53833-4 0  9990","CENTER_NAME":"EARTH","SEMIMAJOR_AXIS":"6917.891","LAUNCH_DATE":"2022-01-19","EPHEMERIS_TYPE":"0","TLE_LINE2":"2 51130  53.2181 333.4011 0001846  52.8904 307.2257 15.08836692 21764","INCLINATION":"53.2181","MEAN_MOTION_DDOT":"0.0000000000000","OBJECT_ID":"2022-005AC","RCS_SIZE":"LARGE","TIME_SYSTEM":"UTC","ECCENTRICITY":"0.00018460","ELEMENT_SET_NO":"999","OBJECT_NAME":"STARLINK-3395","OBJECT_TYPE":"PAYLOAD","SITE":"AFETR","EPOCH":"2022-06-07T18:36:16.430688","MEAN_ELEMENT_THEORY":"SGP4","RA_OF_ASC_NODE":"333.4011","FILE":"3485136","GP_ID":"205596229"},{"CENTER_NAME":"EARTH","ARG_OF_PERICENTER":"52.2894","TLE_LINE1":"1 51131U 22005AD  22158.76782558  .00000404  00000-0  43485-4 0  9992","NORAD_CAT_ID":"51131","PERIOD":"95.438","DECAY_DATE":null,"INCLINATION":"53.2191","LAUNCH_DATE":"2022-01-19","SEMIMAJOR_AXIS":"6917.880","EPHEMERIS_TYPE":"0","TLE_LINE2":"2 51131  53.2191 333.4388 0001817  52.2894 307.8263 15.08840037 21764","REV_AT_EPOCH":"2176","MEAN_MOTION_DOT":"0.00000404","MEAN_ANOMALY":"307.8263","BSTAR":"0.00004348500000","CLASSIFICATION_TYPE":"U","APOAPSIS":"541.002","MEAN_MOTION":"15.08840037","COUNTRY_CODE":"US","REF_FRAME":"TEME","PERIAPSIS":"538.488","MEAN_ELEMENT_THEORY":"SGP4","RA_OF_ASC_NODE":"333.4388","EPOCH":"2022-06-07T18:25:40.130112","OBJECT_NAME":"STARLINK-3388","OBJECT_TYPE":"PAYLOAD","SITE":"AFETR","GP_ID":"205596979","FILE":"3485136","RCS_SIZE":"LARGE","OBJECT_ID":"2022-005AD","MEAN_MOTION_DDOT":"0.0000000000000","ELEMENT_SET_NO":"999","ECCENTRICITY":"0.00018170","TIME_SYSTEM":"UTC"},{"GP_ID":"205597725","FILE":"3485136","RA_OF_ASC_NODE":"333.4193","MEAN_ELEMENT_THEORY":"SGP4","EPOCH":"2022-06-07T18:30:58.646304","SITE":"AFETR","OBJECT_TYPE":"PAYLOAD","OBJECT_NAME":"STARLINK-3393","ECCENTRICITY":"0.00015940","ELEMENT_SET_NO":"999","TIME_SYSTEM":"UTC","RCS_SIZE":"LARGE","OBJECT_ID":"2022-005AE","MEAN_MOTION_DDOT":"0.0000000000000","INCLINATION":"53.2183","TLE_LINE2":"2 51132  53.2183 333.4193 0001594  63.0395 297.0760 15.08839369 21766","LAUNCH_DATE":"2022-01-19","SEMIMAJOR_AXIS":"6917.882","EPHEMERIS_TYPE":"0","CENTER_NAME":"EARTH","TLE_LINE1":"1 51132U 22005AE  22158.77151211 -.00000657  00000-0 -23160-4 0  9990","ARG_OF_PERICENTER":"63.0395","PERIOD":"95.438","NORAD_CAT_ID":"51132","DECAY_DATE":null,"MEAN_MOTION":"15.08839369","REF_FRAME":"TEME","COUNTRY_CODE":"US","PERIAPSIS":"538.645","BSTAR":"-0.00002316000000","MEAN_ANOMALY":"297.0760","CLASSIFICATION_TYPE":"U","REV_AT_EPOCH":"2176","MEAN_MOTION_DOT":"-0.00000657","APOAPSIS":"540.850"},{"MEAN_ELEMENT_THEORY":"SGP4","RA_OF_ASC_NODE":"333.1725","EPOCH":"2022-06-07T19:50:26.923200","OBJECT_NAME":"STARLINK-3356","SITE":"AFETR","OBJECT_TYPE":"PAYLOAD","GP_ID":"205596480","FILE":"3485136","RCS_SIZE":"LARGE","OBJECT_ID":"2022-005AF","MEAN_MOTION_DDOT":"0.0000000000000","ECCENTRICITY":"0.00017330","ELEMENT_SET_NO":"999","TIME_SYSTEM":"UTC","CENTER_NAME":"EARTH","TLE_LINE1":"1 51133U 22005AF  22158.82670050  .00001095  00000-0  86843-4 0  9996","ARG_OF_PERICENTER":"59.1581","NORAD_CAT_ID":"51133","PERIOD":"95.437","DECAY_DATE":null,"INCLINATION":"53.2183","EPHEMERIS_TYPE":"0","LAUNCH_DATE":"2022-01-19","SEMIMAJOR_AXIS":"6917.840","TLE_LINE2":"2 51133  53.2183 333.1725 0001733  59.1581 300.9582 15.08853139 21771","MEAN_MOTION_DOT":"0.00001095","REV_AT_EPOCH":"2177","BSTAR":"0.00008684300000","CLASSIFICATION_TYPE":"U","MEAN_ANOMALY":"300.9582","APOAPSIS":"540.904","MEAN_MOTION":"15.08853139","COUNTRY_CODE":"US","REF_FRAME":"TEME","PERIAPSIS":"538.506"},{"PERIAPSIS":"538.346","MEAN_MOTION":"15.08843666","REF_FRAME":"TEME","COUNTRY_CODE":"US","CLASSIFICATION_TYPE":"U","BSTAR":"-0.00005850800000","MEAN_ANOMALY":"321.2566","MEAN_MOTION_DOT":"-0.00001219","REV_AT_EPOCH":"2193","APOAPSIS":"541.122","TLE_LINE2":"2 51134  53.2165 322.9889 0002006  38.8570 321.2566 15.08843666 21935","LAUNCH_DATE":"2022-01-19","SEMIMAJOR_AXIS":"6917.869","EPHEMERIS_TYPE":"0","INCLINATION":"53.2165","PERIOD":"95.437","NORAD_CAT_ID":"51134","DECAY_DATE":null,"CENTER_NAME":"EARTH","ARG_OF_PERICENTER":"38.8570","TLE_LINE1":"1 51134U 22005AG  22158.86170766 -.00001219  00000-0 -58508-4 0  9997","TIME_SYSTEM":"UTC","ELEMENT_SET_NO":"999","ECCENTRICITY":"0.00020060","OBJECT_ID":"2022-005AG","MEAN_MOTION_DDOT":"0.0000000000000","RCS_SIZE":"LARGE","FILE":"3485136","GP_ID":"205596730","SITE":"AFETR","OBJECT_TYPE":"PAYLOAD","OBJECT_NAME":"STARLINK-3183","RA_OF_ASC_NODE":"322.9889","MEAN_ELEMENT_THEORY":"SGP4","EPOCH":"2022-06-07T20:40:51.541824"},{"ELEMENT_SET_NO":"999","ECCENTRICITY":"0.00017420","TIME_SYSTEM":"UTC","RCS_SIZE":"LARGE","MEAN_MOTION_DDOT":"0.0000000000000","OBJECT_ID":"2022-005AH","GP_ID":"205597480","FILE":"3485136","EPOCH":"2022-06-07T19:45:09.897408","RA_OF_ASC_NODE":"333.1884","MEAN_ELEMENT_THEORY":"SGP4","SITE":"AFETR","OBJECT_TYPE":"PAYLOAD","OBJECT_NAME":"STARLINK-3363","REF_FRAME":"TEME","COUNTRY_CODE":"US","MEAN_MOTION":"15.08841698","PERIAPSIS":"538.535","APOAPSIS":"540.945","BSTAR":"-0.00008280000000","MEAN_ANOMALY":"314.9390","CLASSIFICATION_TYPE":"U","MEAN_MOTION_DOT":"-0.00001606","REV_AT_EPOCH":"2177","INCLINATION":"53.2198","TLE_LINE2":"2 51135  53.2198 333.1884 0001742  45.1744 314.9390 15.08841698 21770","EPHEMERIS_TYPE":"0","LAUNCH_DATE":"2022-01-19","SEMIMAJOR_AXIS":"6917.875","ARG_OF_PERICENTER":"45.1744","TLE_LINE1":"1 51135U 22005AH  22158.82303122 -.00001606  00000-0 -82800-4 0  9990","CENTER_NAME":"EARTH","DECAY_DATE":null,"PERIOD":"95.437","NORAD_CAT_ID":"51135"},{"PERIOD":"95.437","NORAD_CAT_ID":"51136","DECAY_DATE":null,"CENTER_NAME":"EARTH","TLE_LINE1":"1 51136U 22005AJ  22158.75774474  .00000876  00000-0  73131-4 0  9998","ARG_OF_PERICENTER":"58.0109","TLE_LINE2":"2 51136  53.2155 333.4826 0001989  58.0109 302.1077 15.08847112 21761","EPHEMERIS_TYPE":"0","LAUNCH_DATE":"2022-01-19","SEMIMAJOR_AXIS":"6917.859","INCLINATION":"53.2155","CLASSIFICATION_TYPE":"U","BSTAR":"0.00007313100000","MEAN_ANOMALY":"302.1077","REV_AT_EPOCH":"2176","MEAN_MOTION_DOT":"0.00000876","APOAPSIS":"541.100","PERIAPSIS":"538.348","MEAN_MOTION":"15.08847112","REF_FRAME":"TEME","COUNTRY_CODE":"US","SITE":"AFETR","OBJECT_TYPE":"PAYLOAD","OBJECT_NAME":"STARLINK-3253","RA_OF_ASC_NODE":"333.4826","MEAN_ELEMENT_THEORY":"SGP4","EPOCH":"2022-06-07T18:11:09.145536","FILE":"3485136","GP_ID":"205597225","OBJECT_ID":"2022-005AJ","MEAN_MOTION_DDOT":"0.0000000000000","RCS_SIZE":"LARGE","TIME_SYSTEM":"UTC","ELEMENT_SET_NO":"999","ECCENTRICITY":"0.00019890"}];
